{
    "links": {
        "self": "http://www.neowsapp.com/rest/v1/neo/54054749?api_key=iIulBulltgU6a56xZRHN4H3l9WmuAYTsLGpBGhQ2"
    },
    "id": "54054749",
    "neo_reference_id": "54054749",
    "name": "(2020 TH)",
    "designation": "2020 TH",
    "nasa_jpl_url": "http://ssd.jpl.nasa.gov/sbdb.cgi?sstr=54054749",
    "absolute_magnitude_h": 26.053,
    "estimated_diameter": {
        "kilometers": {
            "estimated_diameter_min": 0.0163664684,
            "estimated_diameter_max": 0.0365965359
        },
        "meters": {
            "estimated_diameter_min": 16.3664684114,
            "estimated_diameter_max": 36.5965359194
        },
        "miles": {
            "estimated_diameter_min": 0.0101696488,
            "estimated_diameter_max": 0.0227400261
        },
        "feet": {
            "estimated_diameter_min": 53.6957642227,
            "estimated_diameter_max": 120.0673789059
        }
    },
    "is_potentially_hazardous_asteroid": false,
    "close_approach_data": [
        {
            "close_approach_date": "2020-10-06",
            "close_approach_date_full": "2020-Oct-06 19:40",
            "epoch_date_close_approach": 1602013200000,
            "relative_velocity": {
                "kilometers_per_second": "7.6904508309",
                "kilometers_per_hour": "27685.6229913399",
                "miles_per_hour": "17202.7694637023"
            },
            "miss_distance": {
                "astronomical": "0.0300607045",
                "lunar": "11.6936140505",
                "kilometers": "4497017.363899415",
                "miles": "2794317.015725327"
            },
            "orbiting_body": "Earth"
        }
    ],
    "orbital_data": {
        "orbit_id": "7",
        "orbit_determination_date": "2020-10-18 08:05:58",
        "first_observation_date": "2020-10-06",
        "last_observation_date": "2020-10-18",
        "data_arc_in_days": 12,
        "observations_used": 45,
        "orbit_uncertainty": "7",
        "minimum_orbit_intersection": ".030085",
        "jupiter_tisserand_invariant": "3.170",
        "epoch_osculation": "2459000.5",
        "eccentricity": ".595271281382095",
        "semi_major_axis": "2.537951340358995",
        "inclination": "4.04662618151254",
        "ascending_node_longitude": "202.4413779465478",
        "orbital_period": "1476.805712718803",
        "perihelion_distance": "1.027181793898091",
        "perihelion_argument": "173.3190675879455",
        "aphelion_distance": "4.048720886819899",
        "perihelion_time": "2459130.847526248010",
        "mean_anomaly": "328.2252654867549",
        "mean_motion": ".243769371217585",
        "equinox": "J2000",
        "orbit_class": {
            "orbit_class_type": "AMO",
            "orbit_class_description": "Near-Earth asteroid orbits similar to that of 1221 Amor",
            "orbit_class_range": "1.017 AU < q (perihelion) < 1.3 AU"
        }
    },
    "is_sentry_object": false
}